GLOBALSTAR M063         
1 26081U 00008A   24169.88955764 -.00000067  00000+0  22774-3 0  9997
2 26081  51.9977 350.9899 0004204 346.1101 160.4255 11.86155771114344
GLOBALSTAR M062         
1 26082U 00008B   24169.91388054 -.00000097  00000+0  12018-4 0  9998
2 26082  51.9852  86.9758 0007625  53.4726  33.6131 12.43438384451300
GLOBALSTAR M060         
1 26083U 00008C   24169.94333028 -.00000086  00000+0  51981-4 0  9993
2 26083  52.0043 355.3676 0004197 103.2580  44.3733 12.17633217107993
GLOBALSTAR M064         
1 26084U 00008D   24169.90635496 -.00000098  00000+0 -21704-3 0  9997
2 26084  52.0035  94.0671 0001873  62.9596 297.1428 11.88519663123782
GLOBALSTAR M065         
1 31571U 07020A   24169.49235054 -.00000078  00000+0  14618-3 0  9998
2 31571  51.9893 256.2495 0009999 217.6295 156.4960 12.61971640787364
GLOBALSTAR M069         
1 31573U 07020C   24169.83781113 -.00000058  00000+0  25602-3 0  9993
2 31573  51.9929 211.0231 0000552 230.2378 300.7788 12.62275655788538
GLOBALSTAR M072         
1 31574U 07020D   24169.64039197 -.00000088  00000+0  86119-4 0  9995
2 31574  52.0100 307.5617 0000988 132.9224 240.0199 12.62273434786782
GLOBALSTAR M071         
1 31576U 07020F   24169.86447773 -.00000056  00000+0  26797-3 0  9994
2 31576  52.0046 216.1093 0000059 166.8212   4.3574 12.62268652449722
